CCSDS_OMM_VERS = 2.0
CREATION_DATE  = 
ORIGINATOR     = 

OBJECT_NAME    = YOTSUBA-KULOVER
OBJECT_ID      = 1998-067XN
CENTER_NAME    = EARTH
REF_FRAME      = TEME
TIME_SYSTEM    = UTC
MEAN_ELEMENT_THEORY = SGP/SGP4

EPOCH          = 2026-02-21T16:12:57.240864
MEAN_MOTION    = 15.74466328
ECCENTRICITY   = .00055549
INCLINATION    = 51.6233
RA_OF_ASC_NODE = 139.9500
ARG_OF_PERICENTER = 343.5325
MEAN_ANOMALY   = 16.5492

EPHEMERIS_TYPE = 0
CLASSIFICATION_TYPE = U
NORAD_CAT_ID   = 65941
ELEMENT_SET_NO = 999
REV_AT_EPOCH   = 2097
BSTAR          = .86852941E-3
MEAN_MOTION_DOT = .130422E-2
MEAN_MOTION_DDOT = 0

CCSDS_OMM_VERS = 2.0
CREATION_DATE  = 
ORIGINATOR     = 

OBJECT_NAME    = BOTAN
OBJECT_ID      = 1998-067XP
CENTER_NAME    = EARTH
REF_FRAME      = TEME
TIME_SYSTEM    = UTC
MEAN_ELEMENT_THEORY = SGP/SGP4

EPOCH          = 2026-02-21T14:23:39.255360
MEAN_MOTION    = 15.96170388
ECCENTRICITY   = .00098602
INCLINATION    = 51.6138
RA_OF_ASC_NODE = 134.8513
ARG_OF_PERICENTER = 1.0978
MEAN_ANOMALY   = 359.0050

EPHEMERIS_TYPE = 0
CLASSIFICATION_TYPE = U
NORAD_CAT_ID   = 65942
ELEMENT_SET_NO = 999
REV_AT_EPOCH   = 2103
BSTAR          = .14362388E-2
MEAN_MOTION_DOT = .609668E-2
MEAN_MOTION_DDOT = .16727597E-3

CCSDS_OMM_VERS = 2.0
CREATION_DATE  = 
ORIGINATOR     = 

OBJECT_NAME    = E-KAGAKU-1
OBJECT_ID      = 1998-067XQ
CENTER_NAME    = EARTH
REF_FRAME      = TEME
TIME_SYSTEM    = UTC
MEAN_ELEMENT_THEORY = SGP/SGP4

EPOCH          = 2026-02-21T14:44:20.450976
MEAN_MOTION    = 15.74273931
ECCENTRICITY   = .00056206
INCLINATION    = 51.6258
RA_OF_ASC_NODE = 140.3031
ARG_OF_PERICENTER = 353.0788
MEAN_ANOMALY   = 7.0133

EPHEMERIS_TYPE = 0
CLASSIFICATION_TYPE = U
NORAD_CAT_ID   = 65943
ELEMENT_SET_NO = 999
REV_AT_EPOCH   = 2096
BSTAR          = .87964255E-3
MEAN_MOTION_DOT = .131011E-2
MEAN_MOTION_DDOT = 0

CCSDS_OMM_VERS = 2.0
CREATION_DATE  = 
ORIGINATOR     = 

OBJECT_NAME    = HRC MONOBLOCK CAMERA
OBJECT_ID      = 1998-067XR
CENTER_NAME    = EARTH
REF_FRAME      = TEME
TIME_SYSTEM    = UTC
MEAN_ELEMENT_THEORY = SGP/SGP4

EPOCH          = 2026-02-22T06:35:38.676480
MEAN_MOTION    = 15.60482841
ECCENTRICITY   = .0002701
INCLINATION    = 51.6278
RA_OF_ASC_NODE = 143.2265
ARG_OF_PERICENTER = 33.4485
MEAN_ANOMALY   = 326.6679

EPHEMERIS_TYPE = 0
CLASSIFICATION_TYPE = U
NORAD_CAT_ID   = 66052
ELEMENT_SET_NO = 999
REV_AT_EPOCH   = 1998
BSTAR          = .56031E-3
MEAN_MOTION_DOT = .46806E-3
MEAN_MOTION_DDOT = 0

CCSDS_OMM_VERS = 2.0
CREATION_DATE  = 
ORIGINATOR     = 

OBJECT_NAME    = HTV-X1
OBJECT_ID      = 2025-241A
CENTER_NAME    = EARTH
REF_FRAME      = TEME
TIME_SYSTEM    = UTC
MEAN_ELEMENT_THEORY = SGP/SGP4

EPOCH          = 2026-02-21T18:22:01.806816
MEAN_MOTION    = 15.48189327
ECCENTRICITY   = .00085118
INCLINATION    = 51.6320
RA_OF_ASC_NODE = 151.0701
ARG_OF_PERICENTER = 119.8639
MEAN_ANOMALY   = 240.3195

EPHEMERIS_TYPE = 0
CLASSIFICATION_TYPE = U
NORAD_CAT_ID   = 66174
ELEMENT_SET_NO = 999
REV_AT_EPOCH   = 51
BSTAR          = .20704396E-3
MEAN_MOTION_DOT = .10666E-3
MEAN_MOTION_DDOT = 0

CCSDS_OMM_VERS = 2.0
CREATION_DATE  = 
ORIGINATOR     = 

OBJECT_NAME    = SZ-21 MODULE
OBJECT_ID      = 2025-246C
CENTER_NAME    = EARTH
REF_FRAME      = TEME
TIME_SYSTEM    = UTC
MEAN_ELEMENT_THEORY = SGP/SGP4

EPOCH          = 2026-02-22T02:03:26.186400
MEAN_MOTION    = 15.67269924
ECCENTRICITY   = .0001593
INCLINATION    = 41.4753
RA_OF_ASC_NODE = 299.3233
ARG_OF_PERICENTER = 293.5720
MEAN_ANOMALY   = 66.4954

EPHEMERIS_TYPE = 0
CLASSIFICATION_TYPE = U
NORAD_CAT_ID   = 66515
ELEMENT_SET_NO = 999
REV_AT_EPOCH   = 1562
BSTAR          = .2743E-3
MEAN_MOTION_DOT = .30145E-3
MEAN_MOTION_DDOT = 0

CCSDS_OMM_VERS = 2.0
CREATION_DATE  = 
ORIGINATOR     = 

OBJECT_NAME    = SHENZHOU-22
OBJECT_ID      = 2025-272A
CENTER_NAME    = EARTH
REF_FRAME      = TEME
TIME_SYSTEM    = UTC
MEAN_ELEMENT_THEORY = SGP/SGP4

EPOCH          = 2026-02-21T21:44:21.861312
MEAN_MOTION    = 15.59974430
ECCENTRICITY   = .00049966
INCLINATION    = 41.4670
RA_OF_ASC_NODE = 304.1498
ARG_OF_PERICENTER = 166.7243
MEAN_ANOMALY   = 193.3728

EPHEMERIS_TYPE = 0
CLASSIFICATION_TYPE = U
NORAD_CAT_ID   = 66645
ELEMENT_SET_NO = 999
REV_AT_EPOCH   = 26764
BSTAR          = .18817257E-3
MEAN_MOTION_DOT = .15335E-3
MEAN_MOTION_DDOT = 0

CCSDS_OMM_VERS = 2.0
CREATION_DATE  = 
ORIGINATOR     = 

OBJECT_NAME    = SOYUZ-MS 28
OBJECT_ID      = 2025-275A
CENTER_NAME    = EARTH
REF_FRAME      = TEME
TIME_SYSTEM    = UTC
MEAN_ELEMENT_THEORY = SGP/SGP4

EPOCH          = 2026-02-22T05:12:40.882176
MEAN_MOTION    = 15.48201707
ECCENTRICITY   = .0008515
INCLINATION    = 51.6319
RA_OF_ASC_NODE = 148.8375
ARG_OF_PERICENTER = 121.3250
MEAN_ANOMALY   = 238.8573

EPHEMERIS_TYPE = 0
CLASSIFICATION_TYPE = U
NORAD_CAT_ID   = 66664
ELEMENT_SET_NO = 999
REV_AT_EPOCH   = 55393
BSTAR          = .24697E-3
MEAN_MOTION_DOT = .12819E-3
MEAN_MOTION_DDOT = 0

CCSDS_OMM_VERS = 2.0
CREATION_DATE  = 
ORIGINATOR     = 

OBJECT_NAME    = DUPLEX
OBJECT_ID      = 1998-067XS
CENTER_NAME    = EARTH
REF_FRAME      = TEME
TIME_SYSTEM    = UTC
MEAN_ELEMENT_THEORY = SGP/SGP4

EPOCH          = 2026-02-22T07:08:04.635168
MEAN_MOTION    = 15.55119542
ECCENTRICITY   = .0001684
INCLINATION    = 51.6295
RA_OF_ASC_NODE = 146.3770
ARG_OF_PERICENTER = 73.4164
MEAN_ANOMALY   = 286.7012

EPHEMERIS_TYPE = 0
CLASSIFICATION_TYPE = U
NORAD_CAT_ID   = 66906
ELEMENT_SET_NO = 999
REV_AT_EPOCH   = 1273
BSTAR          = .47488E-3
MEAN_MOTION_DOT = .32245E-3
MEAN_MOTION_DDOT = 0

CCSDS_OMM_VERS = 2.0
CREATION_DATE  = 
ORIGINATOR     = 

OBJECT_NAME    = ISS OBJECT XT
OBJECT_ID      = 1998-067XT
CENTER_NAME    = EARTH
REF_FRAME      = TEME
TIME_SYSTEM    = UTC
MEAN_ELEMENT_THEORY = SGP/SGP4

EPOCH          = 2026-02-22T06:36:13.736736
MEAN_MOTION    = 15.64704842
ECCENTRICITY   = .0003623
INCLINATION    = 51.6255
RA_OF_ASC_NODE = 143.9742
ARG_OF_PERICENTER = 354.8184
MEAN_ANOMALY   = 5.2773

EPHEMERIS_TYPE = 0
CLASSIFICATION_TYPE = U
NORAD_CAT_ID   = 66907
ELEMENT_SET_NO = 999
REV_AT_EPOCH   = 1276
BSTAR          = .12704E-2
MEAN_MOTION_DOT = .12725E-2
MEAN_MOTION_DDOT = 0

CCSDS_OMM_VERS = 2.0
CREATION_DATE  = 
ORIGINATOR     = 

OBJECT_NAME    = ISS OBJECT XU
OBJECT_ID      = 1998-067XU
CENTER_NAME    = EARTH
REF_FRAME      = TEME
TIME_SYSTEM    = UTC
MEAN_ELEMENT_THEORY = SGP/SGP4

EPOCH          = 2026-02-22T06:34:52.647744
MEAN_MOTION    = 15.64758148
ECCENTRICITY   = .0003624
INCLINATION    = 51.6253
RA_OF_ASC_NODE = 143.9648
ARG_OF_PERICENTER = 358.4330
MEAN_ANOMALY   = 1.6653

EPHEMERIS_TYPE = 0
CLASSIFICATION_TYPE = U
NORAD_CAT_ID   = 66908
ELEMENT_SET_NO = 999
REV_AT_EPOCH   = 1276
BSTAR          = .1285E-2
MEAN_MOTION_DOT = .129013E-2
MEAN_MOTION_DDOT = 0

CCSDS_OMM_VERS = 2.0
CREATION_DATE  = 
ORIGINATOR     = 

OBJECT_NAME    = SILVERSAT
OBJECT_ID      = 1998-067XV
CENTER_NAME    = EARTH
REF_FRAME      = TEME
TIME_SYSTEM    = UTC
MEAN_ELEMENT_THEORY = SGP/SGP4

EPOCH          = 2026-02-21T11:15:36.863424
MEAN_MOTION    = 15.66462804
ECCENTRICITY   = .00042756
INCLINATION    = 51.6263
RA_OF_ASC_NODE = 147.5901
ARG_OF_PERICENTER = 349.0523
MEAN_ANOMALY   = 11.0379

EPHEMERIS_TYPE = 0
CLASSIFICATION_TYPE = U
NORAD_CAT_ID   = 66909
ELEMENT_SET_NO = 999
REV_AT_EPOCH   = 1264
BSTAR          = .13740226E-2
MEAN_MOTION_DOT = .148121E-2
MEAN_MOTION_DDOT = 0

